
# Worst residual: 16.17 km
# MJD 58634.000000 (2019 May 31  0:00)
TITAN 3C TRANSTAGE R/B
1 50000U 70027A   19151.49919926  .00000000  00000-0  00000-0 0  7161
2 50000 022.6963 248.1636 7175411 345.0154 348.9618 00.44262461    07

# Worst residual: 5.16 km
# MJD 58635.000000 (2019 Jun  1  0:00)
TITAN 3C TRANSTAGE R/B
1 50000U 70027A   19152.49919926  .00000000  00000-0  00000-0 0  7162
2 50000 022.6804 248.1592 7173648 345.0647 148.2787 00.44260924    09

# Worst residual: 14.46 km
# MJD 58636.000000 (2019 Jun  2  0:00)
TITAN 3C TRANSTAGE R/B
1 50000U 70027A   19153.49919926  .00000000  00000-0  00000-0 0  7163
2 50000 022.6583 248.1500 7178549 345.1184 307.5609 00.44273275    00

# Worst residual: 12.75 km
# MJD 58637.000000 (2019 Jun  3  0:00)
TITAN 3C TRANSTAGE R/B
1 50000U 70027A   19154.49919926  .00000000  00000-0  00000-0 0  7164
2 50000 022.6450 248.1479 7176733 345.1668 106.9495 00.44277713    03

# Worst residual: 5.37 km
# MJD 58638.000000 (2019 Jun  4  0:00)
TITAN 3C TRANSTAGE R/B
1 50000U 70027A   19155.49919926  .00000000  00000-0  00000-0 0  7165
2 50000 022.5846 248.1675 7173893 345.1742 266.2741 00.44270634    05

# Worst residual: 10.75 km
# MJD 58639.000000 (2019 Jun  5  0:00)
TITAN 3C TRANSTAGE R/B
1 50000U 70027A   19156.49919926  .00000000  00000-0  00000-0 0  7166
2 50000 022.5660 248.1338 7174774 345.2348 065.6241 00.44275350    03

# Worst residual: 2.41 km
# MJD 58640.000000 (2019 Jun  6  0:00)
TITAN 3C TRANSTAGE R/B
1 50000U 70027A   19157.49919926  .00000000  00000-0  00000-0 0  7167
2 50000 022.5552 248.1213 7174525 345.2449 225.1118 00.44290994    08

# Worst residual: 4.90 km
# MJD 58641.000000 (2019 Jun  7  0:00)
TITAN 3C TRANSTAGE R/B
1 50000U 70027A   19158.49919926  .00000000  00000-0  00000-0 0  7168
2 50000 022.5341 248.0962 7173290 345.2762 024.4961 00.44285741    00

# Worst residual: 2.55 km
# MJD 58642.000000 (2019 Jun  8  0:00)
TITAN 3C TRANSTAGE R/B
1 50000U 70027A   19159.49919926  .00000000  00000-0  00000-0 0  7169
2 50000 022.5353 248.0620 7176225 345.3203 183.8759 00.44287890    08

# Worst residual: 2.78 km
# MJD 58643.000000 (2019 Jun  9  0:00)
TITAN 3C TRANSTAGE R/B
1 50000U 70027A   19160.49919926  .00000000  00000-0  00000-0 0  7161
2 50000 022.5321 248.0470 7176961 345.3545 343.2753 00.44292596    07

# Worst residual: 3.14 km
# MJD 58644.000000 (2019 Jun 10  0:00)
TITAN 3C TRANSTAGE R/B
1 50000U 70027A   19161.49919926  .00000000  00000-0  00000-0 0  7162
2 50000 022.5203 248.0324 7179008 345.3891 142.6383 00.44281980    08

# Worst residual: 9.83 km
# MJD 58645.000000 (2019 Jun 11  0:00)
TITAN 3C TRANSTAGE R/B
1 50000U 70027A   19162.49919926  .00000000  00000-0  00000-0 0  7163
2 50000 022.5085 248.0215 7180078 345.4159 302.0259 00.44274334    01

# Worst residual: 3.21 km
# MJD 58646.000000 (2019 Jun 12  0:00)
TITAN 3C TRANSTAGE R/B
1 50000U 70027A   19163.49919926  .00000000  00000-0  00000-0 0  7164
2 50000 022.4976 248.0140 7180393 345.4508 101.4017 00.44282185    00

# Worst residual: 9.15 km
# MJD 58647.000000 (2019 Jun 13  0:00)
TITAN 3C TRANSTAGE R/B
1 50000U 70027A   19164.49919926  .00000000  00000-0  00000-0 0  7165
2 50000 022.4815 248.0078 7179507 345.4679 260.7927 00.44272685    09

# Worst residual: 13.72 km
# MJD 58648.000000 (2019 Jun 14  0:00)
TITAN 3C TRANSTAGE R/B
1 50000U 70027A   19165.49919926  .00000000  00000-0  00000-0 0  7166
2 50000 022.4751 247.9961 7181855 345.5090 060.1609 00.44266665    04

# Worst residual: 2.08 km
# MJD 58649.000000 (2019 Jun 15  0:00)
TITAN 3C TRANSTAGE R/B
1 50000U 70027A   19166.49919926  .00000000  00000-0  00000-0 0  7167
2 50000 022.4692 247.9814 7181348 345.5277 219.5932 00.44280507    09

# Worst residual: 14.26 km
# MJD 58650.000000 (2019 Jun 16  0:00)
TITAN 3C TRANSTAGE R/B
1 50000U 70027A   19167.49919926  .00000000  00000-0  00000-0 0  7168
2 50000 022.4678 247.9690 7183870 345.5568 018.9807 00.44257831    06

# Worst residual: 2.43 km
# MJD 58651.000000 (2019 Jun 17  0:00)
TITAN 3C TRANSTAGE R/B
1 50000U 70027A   19168.49919926  .00000000  00000-0  00000-0 0  7169
2 50000 022.4624 247.9517 7182640 345.5838 178.4068 00.44280909    02

# Worst residual: 7.87 km
# MJD 58652.000000 (2019 Jun 18  0:00)
TITAN 3C TRANSTAGE R/B
1 50000U 70027A   19169.49919926  .00000000  00000-0  00000-0 0  7160
2 50000 022.4657 247.9379 7183620 345.6180 337.7763 00.44281878    02

# Worst residual: 4.50 km
# MJD 58653.000000 (2019 Jun 19  0:00)
TITAN 3C TRANSTAGE R/B
1 50000U 70027A   19170.49919926  .00000000  00000-0  00000-0 0  7162
2 50000 022.4551 247.9245 7183489 345.6507 137.1812 00.44282823    01

# Worst residual: 4.43 km
# MJD 58654.000000 (2019 Jun 20  0:00)
TITAN 3C TRANSTAGE R/B
1 50000U 70027A   19171.49919926  .00000000  00000-0  00000-0 0  7163
2 50000 022.4458 247.9099 7183411 345.6843 296.5486 00.44285706    02

# Worst residual: 2.72 km
# MJD 58655.000000 (2019 Jun 21  0:00)
TITAN 3C TRANSTAGE R/B
1 50000U 70027A   19172.49919926  .00000000  00000-0  00000-0 0  7164
2 50000 022.4378 247.8935 7184078 345.7161 095.9440 00.44286581    08

# Worst residual: 2.62 km
# MJD 58656.000000 (2019 Jun 22  0:00)
TITAN 3C TRANSTAGE R/B
1 50000U 70027A   19173.49919926  .00000000  00000-0  00000-0 0  7165
2 50000 022.4173 247.8881 7183424 345.7303 255.3769 00.44284600    09

# Worst residual: 2.54 km
# MJD 58657.000000 (2019 Jun 23  0:00)
TITAN 3C TRANSTAGE R/B
1 50000U 70027A   19174.49919926  .00000000  00000-0  00000-0 0  7166
2 50000 022.4057 247.8676 7183198 345.7621 054.7580 00.44282667    06

# Worst residual: 4.19 km
# MJD 58658.000000 (2019 Jun 24  0:00)
TITAN 3C TRANSTAGE R/B
1 50000U 70027A   19175.49919926  .00000000  00000-0  00000-0 0  7167
2 50000 022.3972 247.8500 7184676 345.7808 214.2007 00.44290949    05

# Worst residual: 6.71 km
# MJD 58659.000000 (2019 Jun 25  0:00)
TITAN 3C TRANSTAGE R/B
1 50000U 70027A   19176.49919926  .00000000  00000-0  00000-0 0  7168
2 50000 022.3858 247.8369 7185330 345.7964 013.6286 00.44272054    09

# Worst residual: 3.86 km
# MJD 58660.000000 (2019 Jun 26  0:00)
TITAN 3C TRANSTAGE R/B
1 50000U 70027A   19177.49919926  .00000000  00000-0  00000-0 0  7169
2 50000 022.3863 247.8008 7187715 345.8422 172.9913 00.44282292    05

# Worst residual: 12.10 km
# MJD 58661.000000 (2019 Jun 27  0:00)
TITAN 3C TRANSTAGE R/B
1 50000U 70027A   19178.49919926  .00000000  00000-0  00000-0 0  7160
2 50000 022.3896 247.7858 7191892 345.8643 332.4546 00.44270780    03

# Worst residual: 5.15 km
# MJD 58662.000000 (2019 Jun 28  0:00)
TITAN 3C TRANSTAGE R/B
1 50000U 70027A   19179.49919926  .00000000  00000-0  00000-0 0  7161
2 50000 022.3781 247.7763 7191247 345.9129 131.7876 00.44263850    01

# Worst residual: 13.22 km
# MJD 58663.000000 (2019 Jun 29  0:00)
TITAN 3C TRANSTAGE R/B
1 50000U 70027A   19180.49919926  .00000000  00000-0  00000-0 0  7163
2 50000 022.3629 247.7649 7196162 345.9628 291.0747 00.44277090    08
